CCSDS_OMM_VERS = 2.0
CREATION_DATE  = 
ORIGINATOR     = 

OBJECT_NAME    = SL-16 R/B
OBJECT_ID      = 1998-043G
CENTER_NAME    = EARTH
REF_FRAME      = TEME
TIME_SYSTEM    = UTC
MEAN_ELEMENT_THEORY = SGP/SGP4

EPOCH          = 2026-01-27T19:49:43.459680
MEAN_MOTION    = 14.26039265
ECCENTRICITY   = .00106378
INCLINATION    = 98.8188
RA_OF_ASC_NODE = 340.9176
ARG_OF_PERICENTER = 129.0152
MEAN_ANOMALY   = 231.1976

EPHEMERIS_TYPE = 0
CLASSIFICATION_TYPE = U
NORAD_CAT_ID   = 25400
ELEMENT_SET_NO = 999
REV_AT_EPOCH   = 43316
BSTAR          = .78504106E-4
MEAN_MOTION_DOT = .142E-5
MEAN_MOTION_DDOT = 0

CCSDS_OMM_VERS = 2.0
CREATION_DATE  = 
ORIGINATOR     = 

OBJECT_NAME    = SL-16 R/B
OBJECT_ID      = 1998-045B
CENTER_NAME    = EARTH
REF_FRAME      = TEME
TIME_SYSTEM    = UTC
MEAN_ELEMENT_THEORY = SGP/SGP4

EPOCH          = 2026-01-27T16:14:15.368064
MEAN_MOTION    = 14.16187236
ECCENTRICITY   = .00050914
INCLINATION    = 71.0103
RA_OF_ASC_NODE = 267.8247
ARG_OF_PERICENTER = 87.1711
MEAN_ANOMALY   = 272.9995

EPHEMERIS_TYPE = 0
CLASSIFICATION_TYPE = U
NORAD_CAT_ID   = 25407
ELEMENT_SET_NO = 999
REV_AT_EPOCH   = 42129
BSTAR          = .27004469E-4
MEAN_MOTION_DOT = .6E-7
MEAN_MOTION_DDOT = 0

CCSDS_OMM_VERS = 2.0
CREATION_DATE  = 
ORIGINATOR     = 

OBJECT_NAME    = ISS (ZARYA)
OBJECT_ID      = 1998-067A
CENTER_NAME    = EARTH
REF_FRAME      = TEME
TIME_SYSTEM    = UTC
MEAN_ELEMENT_THEORY = SGP/SGP4

EPOCH          = 2026-01-27T20:28:45.543360
MEAN_MOTION    = 15.48232561
ECCENTRICITY   = .00111651
INCLINATION    = 51.6319
RA_OF_ASC_NODE = 274.2218
ARG_OF_PERICENTER = 36.9017
MEAN_ANOMALY   = 323.2737

EPHEMERIS_TYPE = 0
CLASSIFICATION_TYPE = U
NORAD_CAT_ID   = 25544
ELEMENT_SET_NO = 999
REV_AT_EPOCH   = 55000
BSTAR          = .19486013E-3
MEAN_MOTION_DOT = .10035E-3
MEAN_MOTION_DDOT = 0

CCSDS_OMM_VERS = 2.0
CREATION_DATE  = 
ORIGINATOR     = 

OBJECT_NAME    = CZ-4B R/B
OBJECT_ID      = 1999-025C
CENTER_NAME    = EARTH
REF_FRAME      = TEME
TIME_SYSTEM    = UTC
MEAN_ELEMENT_THEORY = SGP/SGP4

EPOCH          = 2026-01-27T15:02:00.204864
MEAN_MOTION    = 14.18256539
ECCENTRICITY   = .0038183
INCLINATION    = 98.6706
RA_OF_ASC_NODE = 72.8658
ARG_OF_PERICENTER = 102.8021
MEAN_ANOMALY   = 61.6244

EPHEMERIS_TYPE = 0
CLASSIFICATION_TYPE = U
NORAD_CAT_ID   = 25732
ELEMENT_SET_NO = 999
REV_AT_EPOCH   = 38234
BSTAR          = .75735E-4
MEAN_MOTION_DOT = .114E-5
MEAN_MOTION_DDOT = 0

CCSDS_OMM_VERS = 2.0
CREATION_DATE  = 
ORIGINATOR     = 

OBJECT_NAME    = OKEAN-O
OBJECT_ID      = 1999-039A
CENTER_NAME    = EARTH
REF_FRAME      = TEME
TIME_SYSTEM    = UTC
MEAN_ELEMENT_THEORY = SGP/SGP4

EPOCH          = 2026-01-27T23:02:07.221984
MEAN_MOTION    = 14.80262733
ECCENTRICITY   = .00019051
INCLINATION    = 97.9529
RA_OF_ASC_NODE = 88.2473
ARG_OF_PERICENTER = 96.3609
MEAN_ANOMALY   = 263.7819

EPHEMERIS_TYPE = 0
CLASSIFICATION_TYPE = U
NORAD_CAT_ID   = 25860
ELEMENT_SET_NO = 999
REV_AT_EPOCH   = 42836
BSTAR          = .15464281E-3
MEAN_MOTION_DOT = .1125E-4
MEAN_MOTION_DDOT = 0

CCSDS_OMM_VERS = 2.0
CREATION_DATE  = 
ORIGINATOR     = 

OBJECT_NAME    = SL-16 R/B
OBJECT_ID      = 1999-039B
CENTER_NAME    = EARTH
REF_FRAME      = TEME
TIME_SYSTEM    = UTC
MEAN_ELEMENT_THEORY = SGP/SGP4

EPOCH          = 2026-01-27T13:45:09.763488
MEAN_MOTION    = 14.81669161
ECCENTRICITY   = .0015559
INCLINATION    = 98.0055
RA_OF_ASC_NODE = 86.7124
ARG_OF_PERICENTER = 35.4601
MEAN_ANOMALY   = 324.7642

EPHEMERIS_TYPE = 0
CLASSIFICATION_TYPE = U
NORAD_CAT_ID   = 25861
ELEMENT_SET_NO = 999
REV_AT_EPOCH   = 43077
BSTAR          = .13779E-3
MEAN_MOTION_DOT = .1032E-4
MEAN_MOTION_DDOT = 0

CCSDS_OMM_VERS = 2.0
CREATION_DATE  = 
ORIGINATOR     = 

OBJECT_NAME    = DELTA 2 R/B
OBJECT_ID      = 1999-041E
CENTER_NAME    = EARTH
REF_FRAME      = TEME
TIME_SYSTEM    = UTC
MEAN_ELEMENT_THEORY = SGP/SGP4

EPOCH          = 2026-01-27T14:14:54.055680
MEAN_MOTION    = 14.11648625
ECCENTRICITY   = .0502778
INCLINATION    = 51.7632
RA_OF_ASC_NODE = 105.3841
ARG_OF_PERICENTER = 226.9976
MEAN_ANOMALY   = 128.7777

EPHEMERIS_TYPE = 0
CLASSIFICATION_TYPE = U
NORAD_CAT_ID   = 25876
ELEMENT_SET_NO = 999
REV_AT_EPOCH   = 35722
BSTAR          = .69741E-3
MEAN_MOTION_DOT = .4107E-4
MEAN_MOTION_DDOT = 0

CCSDS_OMM_VERS = 2.0
CREATION_DATE  = 
ORIGINATOR     = 

OBJECT_NAME    = HELIOS 1B
OBJECT_ID      = 1999-064A
CENTER_NAME    = EARTH
REF_FRAME      = TEME
TIME_SYSTEM    = UTC
MEAN_ELEMENT_THEORY = SGP/SGP4

EPOCH          = 2026-01-27T16:24:12.920832
MEAN_MOTION    = 14.87517261
ECCENTRICITY   = .00014485
INCLINATION    = 98.1735
RA_OF_ASC_NODE = 288.7144
ARG_OF_PERICENTER = 130.3217
MEAN_ANOMALY   = 229.8124

EPHEMERIS_TYPE = 0
CLASSIFICATION_TYPE = U
NORAD_CAT_ID   = 25977
ELEMENT_SET_NO = 999
REV_AT_EPOCH   = 67916
BSTAR          = .3713795E-3
MEAN_MOTION_DOT = .331E-4
MEAN_MOTION_DDOT = 0

CCSDS_OMM_VERS = 2.0
CREATION_DATE  = 
ORIGINATOR     = 

OBJECT_NAME    = TERRA
OBJECT_ID      = 1999-068A
CENTER_NAME    = EARTH
REF_FRAME      = TEME
TIME_SYSTEM    = UTC
MEAN_ELEMENT_THEORY = SGP/SGP4

EPOCH          = 2026-01-27T23:20:16.338912
MEAN_MOTION    = 14.60966595
ECCENTRICITY   = .00014372
INCLINATION    = 97.9678
RA_OF_ASC_NODE = 82.9450
ARG_OF_PERICENTER = 343.1953
MEAN_ANOMALY   = 116.2262

EPHEMERIS_TYPE = 0
CLASSIFICATION_TYPE = U
NORAD_CAT_ID   = 25994
ELEMENT_SET_NO = 999
REV_AT_EPOCH   = 38913
BSTAR          = .15084748E-3
MEAN_MOTION_DOT = .695E-5
MEAN_MOTION_DDOT = 0

CCSDS_OMM_VERS = 2.0
CREATION_DATE  = 
ORIGINATOR     = 

OBJECT_NAME    = SL-16 R/B
OBJECT_ID      = 2000-006B
CENTER_NAME    = EARTH
REF_FRAME      = TEME
TIME_SYSTEM    = UTC
MEAN_ELEMENT_THEORY = SGP/SGP4

EPOCH          = 2026-01-27T19:44:33.553248
MEAN_MOTION    = 14.15815908
ECCENTRICITY   = .00185776
INCLINATION    = 71.0013
RA_OF_ASC_NODE = 183.7632
ARG_OF_PERICENTER = 246.5580
MEAN_ANOMALY   = 113.3590

EPHEMERIS_TYPE = 0
CLASSIFICATION_TYPE = U
NORAD_CAT_ID   = 26070
ELEMENT_SET_NO = 999
REV_AT_EPOCH   = 34277
BSTAR          = .20072251E-3
MEAN_MOTION_DOT = .347E-5
MEAN_MOTION_DDOT = 0

CCSDS_OMM_VERS = 2.0
CREATION_DATE  = 
ORIGINATOR     = 

OBJECT_NAME    = TITAN 4B R/B
OBJECT_ID      = 2000-047B
CENTER_NAME    = EARTH
REF_FRAME      = TEME
TIME_SYSTEM    = UTC
MEAN_ELEMENT_THEORY = SGP/SGP4

EPOCH          = 2026-01-27T22:37:51.652416
MEAN_MOTION    = 15.09204104
ECCENTRICITY   = .00367548
INCLINATION    = 67.9889
RA_OF_ASC_NODE = 155.0558
ARG_OF_PERICENTER = 86.3643
MEAN_ANOMALY   = 274.1708

EPHEMERIS_TYPE = 0
CLASSIFICATION_TYPE = U
NORAD_CAT_ID   = 26474
ELEMENT_SET_NO = 999
REV_AT_EPOCH   = 38676
BSTAR          = .34978088E-3
MEAN_MOTION_DOT = .553E-4
MEAN_MOTION_DDOT = 0

CCSDS_OMM_VERS = 2.0
CREATION_DATE  = 
ORIGINATOR     = 

OBJECT_NAME    = ENVISAT
OBJECT_ID      = 2002-009A
CENTER_NAME    = EARTH
REF_FRAME      = TEME
TIME_SYSTEM    = UTC
MEAN_ELEMENT_THEORY = SGP/SGP4

EPOCH          = 2026-01-27T20:35:30.574464
MEAN_MOTION    = 14.39020514
ECCENTRICITY   = .00012323
INCLINATION    = 98.3662
RA_OF_ASC_NODE = 342.4453
ARG_OF_PERICENTER = 91.8071
MEAN_ANOMALY   = 285.2210

EPHEMERIS_TYPE = 0
CLASSIFICATION_TYPE = U
NORAD_CAT_ID   = 27386
ELEMENT_SET_NO = 999
REV_AT_EPOCH   = 25330
BSTAR          = .96145416E-4
MEAN_MOTION_DOT = .254E-5
MEAN_MOTION_DDOT = 0

