SL-16 R/B               
1 25400U 98043G   26027.82619745  .00000142  00000+0  78504-4 0  9998
2 25400  98.8188 340.9176 0010637 129.0152 231.1976 14.26039265433166
SL-16 R/B               
1 25407U 98045B   26027.67656676  .00000006  00000+0  27004-4 0  9992
2 25407  71.0103 267.8247 0005091  87.1711 272.9995 14.16187236421298
ISS (ZARYA)             
1 25544U 98067A   26027.85330490  .00010035  00000+0  19486-3 0  9998
2 25544  51.6319 274.2218 0011165  36.9017 323.2737 15.48232561550007
CZ-4B R/B               
1 25732U 99025C   26027.62639126  .00000114  00000+0  75735-4 0  9992
2 25732  98.6706  72.8658 0038183 102.8021  61.6244 14.18256539382347
OKEAN-O                 
1 25860U 99039A   26027.95980581  .00001125  00000+0  15464-3 0  9994
2 25860  97.9529  88.2473 0001905  96.3609 263.7819 14.80262733428369
SL-16 R/B               
1 25861U 99039B   26027.57302967  .00001032  00000+0  13779-3 0  9993
2 25861  98.0055  86.7124 0015559  35.4601 324.7642 14.81669161430775
DELTA 2 R/B             
1 25876U 99041E   26027.59368120  .00004107  00000+0  69741-3 0  9993
2 25876  51.7632 105.3841 0502778 226.9976 128.7777 14.11648625357222
HELIOS 1B               
1 25977U 99064A   26027.68348288  .00003310  00000+0  37138-3 0  9993
2 25977  98.1735 288.7144 0001448 130.3217 229.8124 14.87517261679162
TERRA                   
1 25994U 99068A   26027.97241133  .00000695  00000+0  15085-3 0  9999
2 25994  97.9678  82.9450 0001437 343.1953 116.2262 14.60966595389133
SL-16 R/B               
1 26070U 00006B   26027.82261057  .00000347  00000+0  20072-3 0  9996
2 26070  71.0013 183.7632 0018577 246.5580 113.3590 14.15815908342774
TITAN 4B R/B            
1 26474U 00047B   26027.94295894  .00005530  00000+0  34978-3 0  9997
2 26474  67.9889 155.0558 0036754  86.3643 274.1708 15.09204104386761
ENVISAT                 
1 27386U 02009A   26027.85799276  .00000254  00000+0  96145-4 0  9996
2 27386  98.3662 342.4453 0001232  91.8071 285.2210 14.39020514253303
